[{"OBJECT_NAME":"STARLINK-32315","OBJECT_ID":"2024-152W","EPOCH":"2026-03-09T17:18:41.914944","MEAN_MOTION":15.30191064,"ECCENTRICITY":0.00010536,"INCLINATION":53.1585,"RA_OF_ASC_NODE":268.4287,"ARG_OF_PERICENTER":105.4524,"MEAN_ANOMALY":254.6593,"EPHEMERIS_TYPE":0,"CLASSIFICATION_TYPE":"U","NORAD_CAT_ID":60740,"ELEMENT_SET_NO":999,"REV_AT_EPOCH":8672,"BSTAR":3.2204648e-5,"MEAN_MOTION_DOT":5.95e-6,"MEAN_MOTION_DDOT":0},{"OBJECT_NAME":"OBJECT H","OBJECT_ID":"2025-055H","EPOCH":"2026-03-09T23:29:50.051328","MEAN_MOTION":15.30330066,"ECCENTRICITY":0.00075967,"INCLINATION":97.636,"RA_OF_ASC_NODE":211.9572,"ARG_OF_PERICENTER":140.4354,"MEAN_ANOMALY":219.7441,"EPHEMERIS_TYPE":0,"CLASSIFICATION_TYPE":"U","NORAD_CAT_ID":63298,"ELEMENT_SET_NO":999,"REV_AT_EPOCH":5423,"BSTAR":0.0015582864,"MEAN_MOTION_DOT":0.00045901,"MEAN_MOTION_DDOT":0}]
